{
  "type": "FeatureCollection",
  "features": [
    {
      "type": "Feature",
      "properties": {
        "norad_id": 31005,
        "name": "FENGYUN 1C DEB",
        "group": "fengyun-1c-debris",
        "lat": 81.37364470031407,
        "lon": 45.929837640541386,
        "alt_km": 1071.4712296360385,
        "timestamp": "2025-12-26T22:28:06.064460+00:00",
        "meta_object_name": "FENGYUN 1C DEB",
        "meta_object_id": "1999-025BCX",
        "meta_epoch": "2025-12-25T08:06:17.154720",
        "meta_mean_motion": 13.83315917,
        "meta_eccentricity": 0.0181141,
        "meta_inclination": 98.6135,
        "meta_ra_of_asc_node": 132.0365,
        "meta_arg_of_pericenter": 290.9603,
        "meta_mean_anomaly": 122.0502,
        "meta_ephemeris_type": 0,
        "meta_classification_type": "U",
        "meta_norad_cat_id": 31005,
        "meta_element_set_no": 999,
        "meta_rev_at_epoch": 94455,
        "meta_bstar": 0.0012807,
        "meta_mean_motion_dot": 1.556e-05,
        "meta_mean_motion_ddot": 0,
        "tle_line1": "1 31005U 99025BCX 25359.33769855  .00001556  00000+0  12807-2 0  9990",
        "tle_line2": "2 31005  98.6135 132.0365 0181141 290.9603 122.0502 13.83315917944558"
      },
      "geometry": {
        "type": "Point",
        "coordinates": [
          45.929837640541386,
          81.37364470031407
        ]
      }
    },
    {
      "type": "Feature",
      "properties": {
        "norad_id": 31007,
        "name": "FENGYUN 1C DEB",
        "group": "fengyun-1c-debris",
        "lat": 47.621970098137005,
        "lon": -16.601593724465037,
        "alt_km": 664.5979327048444,
        "timestamp": "2025-12-26T22:28:06.064471+00:00",
        "meta_object_name": "FENGYUN 1C DEB",
        "meta_object_id": "1999-025BCZ",
        "meta_epoch": "2025-12-26T05:47:25.251936",
        "meta_mean_motion": 14.58925685,
        "meta_eccentricity": 0.00663502,
        "meta_inclination": 98.0887,
        "meta_ra_of_asc_node": 351.6885,
        "meta_arg_of_pericenter": 356.4462,
        "meta_mean_anomaly": 3.6258,
        "meta_ephemeris_type": 0,
        "meta_classification_type": "U",
        "meta_norad_cat_id": 31007,
        "meta_element_set_no": 999,
        "meta_rev_at_epoch": 98291,
        "meta_bstar": 0.0024558489,
        "meta_mean_motion_dot": 0.00011838,
        "meta_mean_motion_ddot": 0,
        "tle_line1": "1 31007U 99025BCZ 25360.24126449  .00011838  00000+0  24558-2 0  9990",
        "tle_line2": "2 31007  98.0887 351.6885 0066350 356.4462   3.6258 14.58925685982915"
      },
      "geometry": {
        "type": "Point",
        "coordinates": [
          -16.601593724465037,
          47.621970098137005
        ]
      }
    },
    {
      "type": "Feature",
      "properties": {
        "norad_id": 31009,
        "name": "FENGYUN 1C DEB",
        "group": "fengyun-1c-debris",
        "lat": -36.30187673916512,
        "lon": 169.76958581037223,
        "alt_km": 862.214021521524,
        "timestamp": "2025-12-26T22:28:06.064481+00:00",
        "meta_object_name": "FENGYUN 1C DEB",
        "meta_object_id": "1999-025BDB",
        "meta_epoch": "2025-12-26T11:46:00.990336",
        "meta_mean_motion": 14.0036804,
        "meta_eccentricity": 0.00533169,
        "meta_inclination": 98.8966,
        "meta_ra_of_asc_node": 355.9432,
        "meta_arg_of_pericenter": 198.4,
        "meta_mean_anomaly": 291.4635,
        "meta_ephemeris_type": 0,
        "meta_classification_type": "U",
        "meta_norad_cat_id": 31009,
        "meta_element_set_no": 999,
        "meta_rev_at_epoch": 96053,
        "meta_bstar": 7.9467104e-05,
        "meta_mean_motion_dot": 7.6e-07,
        "meta_mean_motion_ddot": 0,
        "tle_line1": "1 31009U 99025BDB 25360.49028924  .00000076  00000+0  79467-4 0  9991",
        "tle_line2": "2 31009  98.8966 355.9432 0053316 198.4000 291.4635 14.00368040960531"
      },
      "geometry": {
        "type": "Point",
        "coordinates": [
          169.76958581037223,
          -36.30187673916512
        ]
      }
    },
    {
      "type": "Feature",
      "properties": {
        "norad_id": 31010,
        "name": "FENGYUN 1C DEB",
        "group": "fengyun-1c-debris",
        "lat": 33.37403140243831,
        "lon": -19.457046291535562,
        "alt_km": 883.4124781058308,
        "timestamp": "2025-12-26T22:28:06.064491+00:00",
        "meta_object_name": "FENGYUN 1C DEB",
        "meta_object_id": "1999-025BDC",
        "meta_epoch": "2025-12-25T15:28:22.341792",
        "meta_mean_motion": 14.26000205,
        "meta_eccentricity": 0.011344,
        "meta_inclination": 101.7251,
        "meta_ra_of_asc_node": 150.957,
        "meta_arg_of_pericenter": 320.7007,
        "meta_mean_anomaly": 38.5969,
        "meta_ephemeris_type": 0,
        "meta_classification_type": "U",
        "meta_norad_cat_id": 31010,
        "meta_element_set_no": 999,
        "meta_rev_at_epoch": 95813,
        "meta_bstar": 0.0036132,
        "meta_mean_motion_dot": 9.17e-05,
        "meta_mean_motion_ddot": 0,
        "tle_line1": "1 31010U 99025BDC 25359.64470303  .00009170  00000+0  36132-2 0  9994",
        "tle_line2": "2 31010 101.7251 150.9570 0113440 320.7007  38.5969 14.26000205958139"
      },
      "geometry": {
        "type": "Point",
        "coordinates": [
          -19.457046291535562,
          33.37403140243831
        ]
      }
    },
    {
      "type": "Feature",
      "properties": {
        "norad_id": 31012,
        "name": "FENGYUN 1C DEB",
        "group": "fengyun-1c-debris",
        "lat": -14.429643641006153,
        "lon": -98.36447538284503,
        "alt_km": 845.1508392787828,
        "timestamp": "2025-12-26T22:28:06.064502+00:00",
        "meta_object_name": "FENGYUN 1C DEB",
        "meta_object_id": "1999-025BDE",
        "meta_epoch": "2025-12-25T16:31:40.864224",
        "meta_mean_motion": 14.27874514,
        "meta_eccentricity": 0.00816684,
        "meta_inclination": 98.9114,
        "meta_ra_of_asc_node": 258.0495,
        "meta_arg_of_pericenter": 213.4298,
        "meta_mean_anomaly": 202.3807,
        "meta_ephemeris_type": 0,
        "meta_classification_type": "U",
        "meta_norad_cat_id": 31012,
        "meta_element_set_no": 999,
        "meta_rev_at_epoch": 97932,
        "meta_bstar": 0.00017105569,
        "meta_mean_motion_dot": 3.92e-06,
        "meta_mean_motion_ddot": 0,
        "tle_line1": "1 31012U 99025BDE 25359.68866741  .00000392  00000+0  17106-3 0  9993",
        "tle_line2": "2 31012  98.9114 258.0495 0081668 213.4298 202.3807 14.27874514979327"
      },
      "geometry": {
        "type": "Point",
        "coordinates": [
          -98.36447538284503,
          -14.429643641006153
        ]
      }
    },
    {
      "type": "Feature",
      "properties": {
        "norad_id": 31014,
        "name": "FENGYUN 1C DEB",
        "group": "fengyun-1c-debris",
        "lat": -2.5935104857717315,
        "lon": 155.67391189669982,
        "alt_km": 845.238671871798,
        "timestamp": "2025-12-26T22:28:06.064512+00:00",
        "meta_object_name": "FENGYUN 1C DEB",
        "meta_object_id": "1999-025BDG",
        "meta_epoch": "2025-12-26T10:18:14.239872",
        "meta_mean_motion": 13.9849249,
        "meta_eccentricity": 0.00886079,
        "meta_inclination": 98.8696,
        "meta_ra_of_asc_node": 335.589,
        "meta_arg_of_pericenter": 155.7655,
        "meta_mean_anomaly": 355.8961,
        "meta_ephemeris_type": 0,
        "meta_classification_type": "U",
        "meta_norad_cat_id": 31014,
        "meta_element_set_no": 999,
        "meta_rev_at_epoch": 96027,
        "meta_bstar": -0.00010213598,
        "meta_mean_motion_dot": -1.93e-06,
        "meta_mean_motion_ddot": 0,
        "tle_line1": "1 31014U 99025BDG 25360.42933148 -.00000193  00000+0 -10214-3 0  9999",
        "tle_line2": "2 31014  98.8696 335.5890 0088607 155.7655 355.8961 13.98492490960273"
      },
      "geometry": {
        "type": "Point",
        "coordinates": [
          155.67391189669982,
          -2.5935104857717315
        ]
      }
    },
    {
      "type": "Feature",
      "properties": {
        "norad_id": 31016,
        "name": "FENGYUN 1C DEB",
        "group": "fengyun-1c-debris",
        "lat": 51.308943706959546,
        "lon": -152.9823051833476,
        "alt_km": 803.9085731398409,
        "timestamp": "2025-12-26T22:28:06.064523+00:00",
        "meta_object_name": "FENGYUN 1C DEB",
        "meta_object_id": "1999-025BDJ",
        "meta_epoch": "2025-12-26T00:18:03.537216",
        "meta_mean_motion": 14.30514614,
        "meta_eccentricity": 0.01122277,
        "meta_inclination": 98.4358,
        "meta_ra_of_asc_node": 15.4434,
        "meta_arg_of_pericenter": 234.6044,
        "meta_mean_anomaly": 180.5946,
        "meta_ephemeris_type": 0,
        "meta_classification_type": "U",
        "meta_norad_cat_id": 31016,
        "meta_element_set_no": 999,
        "meta_rev_at_epoch": 97660,
        "meta_bstar": 0.00025422018,
        "meta_mean_motion_dot": 6.66e-06,
        "meta_mean_motion_ddot": 0,
        "tle_line1": "1 31016U 99025BDJ 25360.01254094  .00000666  00000+0  25422-3 0  9992",
        "tle_line2": "2 31016  98.4358  15.4434 0112227 234.6044 180.5946 14.30514614976609"
      },
      "geometry": {
        "type": "Point",
        "coordinates": [
          -152.9823051833476,
          51.308943706959546
        ]
      }
    }
  ]
}